{
  "type": "FeatureCollection",
  "name": "simu_zones",
  "crs": { "type": "name", "properties": { "name": "urn:ogc:def:crs:OGC:1.3:CRS84" } },
  "features": [
    {
      "type": "Feature",
      "properties": { "code": "ZONE-001", "name": "Roma Norte", "alcaldia": "Cuauhtémoc", "source": "seed_mock" },
      "geometry": {
        "type": "Polygon",
        "coordinates": [[[-99.1700, 19.4120], [-99.1520, 19.4120], [-99.1520, 19.4260], [-99.1700, 19.4260], [-99.1700, 19.4120]]]
      }
    },
    {
      "type": "Feature",
      "properties": { "code": "ZONE-002", "name": "Centro Histórico", "alcaldia": "Cuauhtémoc", "source": "seed_mock" },
      "geometry": {
        "type": "Polygon",
        "coordinates": [[[-99.1480, 19.4260], [-99.1260, 19.4260], [-99.1260, 19.4400], [-99.1480, 19.4400], [-99.1480, 19.4260]]]
      }
    },
    {
      "type": "Feature",
      "properties": { "code": "ZONE-003", "name": "Condesa", "alcaldia": "Cuauhtémoc", "source": "seed_mock" },
      "geometry": {
        "type": "Polygon",
        "coordinates": [[[-99.1800, 19.4040], [-99.1650, 19.4040], [-99.1650, 19.4180], [-99.1800, 19.4180], [-99.1800, 19.4040]]]
      }
    },
    {
      "type": "Feature",
      "properties": { "code": "ZONE-004", "name": "Coyoacán", "alcaldia": "Coyoacán", "source": "seed_mock" },
      "geometry": {
        "type": "Polygon",
        "coordinates": [[[-99.1700, 19.3440], [-99.1560, 19.3440], [-99.1560, 19.3540], [-99.1700, 19.3540], [-99.1700, 19.3440]]]
      }
    }
  ]
}
